QIANFAN-97              
1 66039U 25233G   26027.80446691  .00000055  00000+0  66721-4 0  9999
2 66039  88.9916  57.4045 0001862  89.9893 270.1471 13.50992975 14237
QIANFAN-98              
1 66040U 25233H   26027.38637135 -.02013825  00000+0 -28689+1 0  9999
2 66040  88.9905  57.1970 0019337 244.5104 115.4053 13.60268261 14312
QIANFAN-99              
1 66041U 25233J   26027.74273776  .00000055  00000+0  66718-4 0  9993
2 66041  88.9917  57.4139 0001902 102.2467 257.8897 13.50992869 14221
QIANFAN-100             
1 66042U 25233K   26027.80856493  .00000071  00000+0  91760-4 0  9997
2 66042  88.9928  57.3185 0001893  89.3704 270.7664 13.50994231 14289
QIANFAN-101             
1 66043U 25233L   26027.74632744  .00000365  00000+0  14500-3 0  9994
2 66043  88.9917  56.7190 0012831 239.8555 120.1368 14.26702957 14608
QIANFAN-102             
1 66044U 25233M   26027.77575465  .00000068  00000+0  77068-4 0  9993
2 66044  88.9914  57.3285 0013007 261.7369  98.2311 13.57813278 14279
QIANFAN-103             
1 66045U 25233N   26027.75911816  .00000044  00000+0  50173-4 0  9998
2 66045  88.9918  57.4164 0001892  88.7757 271.3611 13.50987773 14225
QIANFAN-104             
1 66046U 25233P   26027.47117677  .00000118  00000+0  15353-3 0  9993
2 66046  88.9924  57.3424 0013484 257.4639 102.5006 13.55250332 14249
